{"fetched_at":"2026-03-29T16:36:15Z","count":15609,"tles":[{"name":"STARLINK-30169","line1":"1 57499U 23113E   26087.79071153  .00007970  00000+0  29856-3 0  9995","line2":"2 57499  43.0020 254.0118 0002346 257.3452 102.7138 15.27608867146608","category":"Starlink"}]}